COSMOS 2251 DEB         
1 34626U 93036WX  26061.76346802  .00007169  00000+0  11047-2 0  9990
2 34626  74.0486 168.1673 0028901 243.0016 272.1047 14.73310451903228
COSMOS 2251 DEB         
1 34634U 93036XF  26061.62467572  .00001597  00000+0  36488-3 0  9998
2 34634  74.0487 243.6925 0045634 328.4510 146.0300 14.55957275899446
COSMOS 2251 DEB         
1 34635U 93036XG  26061.75713104  .00006280  00000+0  10555-2 0  9998
2 34635  74.0432 275.9246 0029276 322.3139 156.8661 14.69546198743940
COSMOS 2251 DEB         
1 34637U 93036XJ  26061.83148707  .00003981  00000+0  80535-3 0  9991
2 34637  74.0501 308.3223 0049374 356.0190  82.1907 14.60897216896963
COSMOS 2251 DEB         
1 34641U 93036XN  26061.05708938  .00001965  00000+0  48621-3 0  9998
2 34641  73.8368 290.3381 0017846 195.1015 316.2341 14.52628470894076
COSMOS 2251 DEB         
1 34642U 93036XP  26061.38498089  .00001486  00000+0  86240-3 0  9995
2 34642  74.0028 201.8071 0208530   2.7979  27.3529 13.99288652864079
COSMOS 2251 DEB         
1 34671U 93036XR  26061.82274830  .00010714  00000+0  18474-2 0  9999
2 34671  74.0292 339.4952 0009093  35.4120  21.2013 14.68551672894722
COSMOS 2251 DEB         
1 34672U 93036XS  26060.96605617  .00000726  00000+0  25515-3 0  9992
2 34672  74.0329 160.0132 0025248 218.9989 262.2403 14.36544729663154
COSMOS 2251 DEB         
1 34678U 93036XY  26061.63578840  .00000038  00000+0  24566-4 0  9992
2 34678  74.0359 220.4357 0026414 252.6399 233.0896 14.30080010885216
COSMOS 2251 DEB         
1 34680U 93036YA  26061.19174486  .00005402  00000+0  10924-2 0  9995
2 34680  74.0456 338.0434 0004786  47.9227 102.8232 14.61572935894888
COSMOS 2251 DEB         
1 34681U 93036YB  26061.65537120  .00011282  00000+0  13054-2 0  9995
2 34681  74.0621 132.1702 0022402 181.1345 301.1436 14.85413780904566
COSMOS 2251 DEB         
1 34682U 93036YC  26061.69098153  .00003035  00000+0  64354-3 0  9995
2 34682  74.0380 290.6423 0017161  38.5425  17.9451 14.59537584898526
COSMOS 2251 DEB         
1 34683U 93036YD  26061.75507406  .00005857  00000+0  10812-2 0  9992
2 34683  74.0283 298.2776 0016839  28.8067  35.8297 14.65591251895206
COSMOS 2251 DEB         
1 34685U 93036YF  26061.58889191  .00005085  00000+0  11034-2 0  9999
2 34685  74.0323 356.8580 0011720  83.2493  89.7084 14.58329535896950
COSMOS 2251 DEB         
1 34689U 93036YK  26061.26077494  .00004952  00000+0  24443-2 0  9993
2 34689  74.0867  84.9176 0219760 136.5322 350.6304 14.05883314854584
COSMOS 2251 DEB         
1 34721U 93036YP  26061.79507256  .00002425  00000+0  14304-2 0  9990
2 34721  73.9228 187.3224 0217579 110.1735  40.9253 13.97225721862677
