[{"OBJECT_NAME":"COSMOS 2251 DEB","OBJECT_ID":"1993-036WX","EPOCH":"2026-03-02T18:19:23.636928","MEAN_MOTION":14.73310451,"ECCENTRICITY":0.0028901,"INCLINATION":74.0486,"RA_OF_ASC_NODE":168.1673,"ARG_OF_PERICENTER":243.0016,"MEAN_ANOMALY":272.1047,"EPHEMERIS_TYPE":0,"CLASSIFICATION_TYPE":"U","NORAD_CAT_ID":34626,"ELEMENT_SET_NO":999,"REV_AT_EPOCH":90322,"BSTAR":0.0011047,"MEAN_MOTION_DOT":7.169e-5,"MEAN_MOTION_DDOT":0},{"OBJECT_NAME":"COSMOS 2251 DEB","OBJECT_ID":"1993-036XF","EPOCH":"2026-03-02T14:59:31.982208","MEAN_MOTION":14.55957275,"ECCENTRICITY":0.0045634,"INCLINATION":74.0487,"RA_OF_ASC_NODE":243.6925,"ARG_OF_PERICENTER":328.451,"MEAN_ANOMALY":146.03,"EPHEMERIS_TYPE":0,"CLASSIFICATION_TYPE":"U","NORAD_CAT_ID":34634,"ELEMENT_SET_NO":999,"REV_AT_EPOCH":89944,"BSTAR":0.00036488,"MEAN_MOTION_DOT":1.597e-5,"MEAN_MOTION_DDOT":0},{"OBJECT_NAME":"COSMOS 2251 DEB","OBJECT_ID":"1993-036XG","EPOCH":"2026-03-02T18:10:16.121856","MEAN_MOTION":14.69546198,"ECCENTRICITY":0.0029276,"INCLINATION":74.0432,"RA_OF_ASC_NODE":275.9246,"ARG_OF_PERICENTER":322.3139,"MEAN_ANOMALY":156.8661,"EPHEMERIS_TYPE":0,"CLASSIFICATION_TYPE":"U","NORAD_CAT_ID":34635,"ELEMENT_SET_NO":999,"REV_AT_EPOCH":74394,"BSTAR":0.0010555,"MEAN_MOTION_DOT":6.28e-5,"MEAN_MOTION_DDOT":0},{"OBJECT_NAME":"COSMOS 2251 DEB","OBJECT_ID":"1993-036XJ","EPOCH":"2026-03-02T19:57:20.482848","MEAN_MOTION":14.60897216,"ECCENTRICITY":0.0049374,"INCLINATION":74.0501,"RA_OF_ASC_NODE":308.3223,"ARG_OF_PERICENTER":356.019,"MEAN_ANOMALY":82.1907,"EPHEMERIS_TYPE":0,"CLASSIFICATION_TYPE":"U","NORAD_CAT_ID":34637,"ELEMENT_SET_NO":999,"REV_AT_EPOCH":89696,"BSTAR":0.00080535,"MEAN_MOTION_DOT":3.981e-5,"MEAN_MOTION_DDOT":0},{"OBJECT_NAME":"COSMOS 2251 DEB","OBJECT_ID":"1993-036XN","EPOCH":"2026-03-02T01:22:12.522432","MEAN_MOTION":14.5262847,"ECCENTRICITY":0.00178465,"INCLINATION":73.8368,"RA_OF_ASC_NODE":290.3381,"ARG_OF_PERICENTER":195.1015,"MEAN_ANOMALY":316.2341,"EPHEMERIS_TYPE":0,"CLASSIFICATION_TYPE":"U","NORAD_CAT_ID":34641,"ELEMENT_SET_NO":999,"REV_AT_EPOCH":89407,"BSTAR":0.00048620978,"MEAN_MOTION_DOT":1.965e-5,"MEAN_MOTION_DDOT":0},{"OBJECT_NAME":"COSMOS 2251 DEB","OBJECT_ID":"1993-036XP","EPOCH":"2026-03-02T09:14:22.348896","MEAN_MOTION":13.99288652,"ECCENTRICITY":0.02085302,"INCLINATION":74.0028,"RA_OF_ASC_NODE":201.8071,"ARG_OF_PERICENTER":2.7979,"MEAN_ANOMALY":27.3529,"EPHEMERIS_TYPE":0,"CLASSIFICATION_TYPE":"U","NORAD_CAT_ID":34642,"ELEMENT_SET_NO":999,"REV_AT_EPOCH":86407,"BSTAR":0.00086240486,"MEAN_MOTION_DOT":1.486e-5,"MEAN_MOTION_DDOT":0},{"OBJECT_NAME":"COSMOS 2251 DEB","OBJECT_ID":"1993-036XR","EPOCH":"2026-03-02T19:44:45.453120","MEAN_MOTION":14.68551672,"ECCENTRICITY":0.0009093,"INCLINATION":74.0292,"RA_OF_ASC_NODE":339.4952,"ARG_OF_PERICENTER":35.412,"MEAN_ANOMALY":21.2013,"EPHEMERIS_TYPE":0,"CLASSIFICATION_TYPE":"U","NORAD_CAT_ID":34671,"ELEMENT_SET_NO":999,"REV_AT_EPOCH":89472,"BSTAR":0.0018474,"MEAN_MOTION_DOT":0.00010714,"MEAN_MOTION_DDOT":0},{"OBJECT_NAME":"COSMOS 2251 DEB","OBJECT_ID":"1993-036XS","EPOCH":"2026-03-01T23:11:07.253088","MEAN_MOTION":14.36544729,"ECCENTRICITY":0.00252481,"INCLINATION":74.0329,"RA_OF_ASC_NODE":160.0132,"ARG_OF_PERICENTER":218.9989,"MEAN_ANOMALY":262.2403,"EPHEMERIS_TYPE":0,"CLASSIFICATION_TYPE":"U","NORAD_CAT_ID":34672,"ELEMENT_SET_NO":999,"REV_AT_EPOCH":66315,"BSTAR":0.00025515002,"MEAN_MOTION_DOT":7.26e-6,"MEAN_MOTION_DDOT":0},{"OBJECT_NAME":"COSMOS 2251 DEB","OBJECT_ID":"1993-036XY","EPOCH":"2026-03-02T15:15:32.117760","MEAN_MOTION":14.3008001,"ECCENTRICITY":0.0026414,"INCLINATION":74.0359,"RA_OF_ASC_NODE":220.4357,"ARG_OF_PERICENTER":252.6399,"MEAN_ANOMALY":233.0896,"EPHEMERIS_TYPE":0,"CLASSIFICATION_TYPE":"U","NORAD_CAT_ID":34678,"ELEMENT_SET_NO":999,"REV_AT_EPOCH":88521,"BSTAR":2.4566e-5,"MEAN_MOTION_DOT":3.8e-7,"MEAN_MOTION_DDOT":0},{"OBJECT_NAME":"COSMOS 2251 DEB","OBJECT_ID":"1993-036YA","EPOCH":"2026-03-02T04:36:06.755904","MEAN_MOTION":14.61572935,"ECCENTRICITY":0.00047861,"INCLINATION":74.0456,"RA_OF_ASC_NODE":338.0434,"ARG_OF_PERICENTER":47.9227,"MEAN_ANOMALY":102.8232,"EPHEMERIS_TYPE":0,"CLASSIFICATION_TYPE":"U","NORAD_CAT_ID":34680,"ELEMENT_SET_NO":999,"REV_AT_EPOCH":89488,"BSTAR":0.0010924359,"MEAN_MOTION_DOT":5.402e-5,"MEAN_MOTION_DDOT":0},{"OBJECT_NAME":"COSMOS 2251 DEB","OBJECT_ID":"1993-036YB","EPOCH":"2026-03-02T15:43:44.071680","MEAN_MOTION":14.8541378,"ECCENTRICITY":0.0022402,"INCLINATION":74.0621,"RA_OF_ASC_NODE":132.1702,"ARG_OF_PERICENTER":181.1345,"MEAN_ANOMALY":301.1436,"EPHEMERIS_TYPE":0,"CLASSIFICATION_TYPE":"U","NORAD_CAT_ID":34681,"ELEMENT_SET_NO":999,"REV_AT_EPOCH":90456,"BSTAR":0.0013054,"MEAN_MOTION_DOT":0.00011282,"MEAN_MOTION_DDOT":0},{"OBJECT_NAME":"COSMOS 2251 DEB","OBJECT_ID":"1993-036YC","EPOCH":"2026-03-02T16:35:00.804192","MEAN_MOTION":14.59537584,"ECCENTRICITY":0.0017161,"INCLINATION":74.038,"RA_OF_ASC_NODE":290.6423,"ARG_OF_PERICENTER":38.5425,"MEAN_ANOMALY":17.9451,"EPHEMERIS_TYPE":0,"CLASSIFICATION_TYPE":"U","NORAD_CAT_ID":34682,"ELEMENT_SET_NO":999,"REV_AT_EPOCH":89852,"BSTAR":0.00064354,"MEAN_MOTION_DOT":3.035e-5,"MEAN_MOTION_DDOT":0},{"OBJECT_NAME":"COSMOS 2251 DEB","OBJECT_ID":"1993-036YD","EPOCH":"2026-03-02T18:07:18.398784","MEAN_MOTION":14.65591251,"ECCENTRICITY":0.0016839,"INCLINATION":74.0283,"RA_OF_ASC_NODE":298.2776,"ARG_OF_PERICENTER":28.8067,"MEAN_ANOMALY":35.8297,"EPHEMERIS_TYPE":0,"CLASSIFICATION_TYPE":"U","NORAD_CAT_ID":34683,"ELEMENT_SET_NO":999,"REV_AT_EPOCH":89520,"BSTAR":0.0010812,"MEAN_MOTION_DOT":5.857e-5,"MEAN_MOTION_DDOT":0},{"OBJECT_NAME":"COSMOS 2251 DEB","OBJECT_ID":"1993-036YF","EPOCH":"2026-03-02T14:08:00.261024","MEAN_MOTION":14.58329535,"ECCENTRICITY":0.001172,"INCLINATION":74.0323,"RA_OF_ASC_NODE":356.858,"ARG_OF_PERICENTER":83.2493,"MEAN_ANOMALY":89.7084,"EPHEMERIS_TYPE":0,"CLASSIFICATION_TYPE":"U","NORAD_CAT_ID":34685,"ELEMENT_SET_NO":999,"REV_AT_EPOCH":89695,"BSTAR":0.0011034,"MEAN_MOTION_DOT":5.085e-5,"MEAN_MOTION_DDOT":0},{"OBJECT_NAME":"COSMOS 2251 DEB","OBJECT_ID":"1993-036YK","EPOCH":"2026-03-02T06:15:30.954816","MEAN_MOTION":14.05883314,"ECCENTRICITY":0.02197607,"INCLINATION":74.0867,"RA_OF_ASC_NODE":84.9176,"ARG_OF_PERICENTER":136.5322,"MEAN_ANOMALY":350.6304,"EPHEMERIS_TYPE":0,"CLASSIFICATION_TYPE":"U","NORAD_CAT_ID":34689,"ELEMENT_SET_NO":999,"REV_AT_EPOCH":85458,"BSTAR":0.0024442617,"MEAN_MOTION_DOT":4.952e-5,"MEAN_MOTION_DDOT":0},{"OBJECT_NAME":"COSMOS 2251 DEB","OBJECT_ID":"1993-036YP","EPOCH":"2026-03-02T19:04:54.269184","MEAN_MOTION":13.97225721,"ECCENTRICITY":0.0217579,"INCLINATION":73.9228,"RA_OF_ASC_NODE":187.3224,"ARG_OF_PERICENTER":110.1735,"MEAN_ANOMALY":40.9253,"EPHEMERIS_TYPE":0,"CLASSIFICATION_TYPE":"U","NORAD_CAT_ID":34721,"ELEMENT_SET_NO":999,"REV_AT_EPOCH":86267,"BSTAR":0.0014304,"MEAN_MOTION_DOT":2.425e-5,"MEAN_MOTION_DDOT":0}]
